0 FENGYUN 1C DEB
1 31646U 99025CBC 13286.22384602  .00000448  00000-0  28771-3 0  3709
2 31646 099.0538 285.9505 0035905 139.7475 220.2233 14.08134997331319
0 FENGYUN 1C DEB
1 31646U 99025CBC 13293.25838311  .00001572  00000-0  94187-3 0  3715
2 31646 099.0625 293.0289 0038182 118.9862 241.6663 14.08155894332307
